{
  "type": "FeatureCollection",
  "features": [
    {
      "type": "Feature",
      "properties": {
        "norad_id": 40545,
        "name": "GSAT0204 (GALILEO 8)",
        "group": "gnss",
        "lat": -39.626384020558106,
        "lon": -160.44667383387232,
        "alt_km": 23211.037283028552,
        "timestamp": "2025-12-09T04:51:47.737756+00:00",
        "meta_object_name": "GSAT0204 (GALILEO 8)",
        "meta_object_id": "2015-017B",
        "meta_epoch": "2025-12-08T05:48:09.490464",
        "meta_mean_motion": 1.70475483,
        "meta_eccentricity": 0.00062708,
        "meta_inclination": 56.8542,
        "meta_ra_of_asc_node": 346.8204,
        "meta_arg_of_pericenter": 261.7403,
        "meta_mean_anomaly": 98.2059,
        "meta_ephemeris_type": 0,
        "meta_classification_type": "U",
        "meta_norad_cat_id": 40545,
        "meta_element_set_no": 999,
        "meta_rev_at_epoch": 2899,
        "meta_bstar": 0,
        "meta_mean_motion_dot": -8.6e-07,
        "meta_mean_motion_ddot": 0,
        "tle_line1": "1 40545U 15017B   25342.24177651 -.00000086  00000+0  00000+0 0  9994",
        "tle_line2": "2 40545  56.8542 346.8204 0006270 261.7403  98.2059  1.70475483 28995"
      },
      "geometry": {
        "type": "Point",
        "coordinates": [
          -160.44667383387232,
          -39.626384020558106
        ]
      }
    },
    {
      "type": "Feature",
      "properties": {
        "norad_id": 40549,
        "name": "BEIDOU-3S IGSO-1S (C31)",
        "group": "gnss",
        "lat": -37.08730003441129,
        "lon": -102.36491174188873,
        "alt_km": 35847.25765622831,
        "timestamp": "2025-12-09T04:51:47.737767+00:00",
        "meta_object_name": "BEIDOU-3S IGSO-1S (C31)",
        "meta_object_id": "2015-019A",
        "meta_epoch": "2025-12-07T20:38:38.670720",
        "meta_mean_motion": 1.00293516,
        "meta_eccentricity": 0.0036821,
        "meta_inclination": 49.562,
        "meta_ra_of_asc_node": 297.7693,
        "meta_arg_of_pericenter": 193.8977,
        "meta_mean_anomaly": 348.5751,
        "meta_ephemeris_type": 0,
        "meta_classification_type": "U",
        "meta_norad_cat_id": 40549,
        "meta_element_set_no": 999,
        "meta_rev_at_epoch": 3915,
        "meta_bstar": 0,
        "meta_mean_motion_dot": -1.86e-06,
        "meta_mean_motion_ddot": 0,
        "tle_line1": "1 40549U 15019A   25341.86016980 -.00000186  00000+0  00000+0 0  9995",
        "tle_line2": "2 40549  49.5620 297.7693 0036821 193.8977 348.5751  1.00293516 39155"
      },
      "geometry": {
        "type": "Point",
        "coordinates": [
          -102.36491174188873,
          -37.08730003441129
        ]
      }
    },
    {
      "type": "Feature",
      "properties": {
        "norad_id": 40730,
        "name": "GPS BIIF-10 (PRN 08)",
        "group": "gnss",
        "lat": -33.14220568903004,
        "lon": -113.24128259905973,
        "alt_km": 20078.205513938094,
        "timestamp": "2025-12-09T04:51:47.737778+00:00",
        "meta_object_name": "GPS BIIF-10 (PRN 08)",
        "meta_object_id": "2015-033A",
        "meta_epoch": "2025-12-08T18:17:13.153056",
        "meta_mean_motion": 2.00565724,
        "meta_eccentricity": 0.0110701,
        "meta_inclination": 54.1342,
        "meta_ra_of_asc_node": 274.9365,
        "meta_arg_of_pericenter": 26.7113,
        "meta_mean_anomaly": 333.8722,
        "meta_ephemeris_type": 0,
        "meta_classification_type": "U",
        "meta_norad_cat_id": 40730,
        "meta_element_set_no": 999,
        "meta_rev_at_epoch": 7617,
        "meta_bstar": 0,
        "meta_mean_motion_dot": -4.4e-07,
        "meta_mean_motion_ddot": 0,
        "tle_line1": "1 40730U 15033A   25342.76195779 -.00000044  00000+0  00000+0 0  9990",
        "tle_line2": "2 40730  54.1342 274.9365 0110701  26.7113 333.8722  2.00565724 76171"
      },
      "geometry": {
        "type": "Point",
        "coordinates": [
          -113.24128259905973,
          -33.14220568903004
        ]
      }
    },
    {
      "type": "Feature",
      "properties": {
        "norad_id": 40748,
        "name": "BEIDOU-3S M2S (C58)",
        "group": "gnss",
        "lat": -21.6836155663655,
        "lon": -67.57329007814216,
        "alt_km": 21516.500732690332,
        "timestamp": "2025-12-09T04:51:47.737792+00:00",
        "meta_object_name": "BEIDOU-3S M2S (C58)",
        "meta_object_id": "2015-037A",
        "meta_epoch": "2025-12-08T16:56:06.141696",
        "meta_mean_motion": 1.86229071,
        "meta_eccentricity": 0.0012283,
        "meta_inclination": 55.0424,
        "meta_ra_of_asc_node": 308.6021,
        "meta_arg_of_pericenter": 268.3899,
        "meta_mean_anomaly": 91.4573,
        "meta_ephemeris_type": 0,
        "meta_classification_type": "U",
        "meta_norad_cat_id": 40748,
        "meta_element_set_no": 999,
        "meta_rev_at_epoch": 7057,
        "meta_bstar": 0,
        "meta_mean_motion_dot": -7.3e-07,
        "meta_mean_motion_ddot": 0,
        "tle_line1": "1 40748U 15037A   25342.70562664 -.00000073  00000+0  00000+0 0  9990",
        "tle_line2": "2 40748  55.0424 308.6021 0012283 268.3899  91.4573  1.86229071 70570"
      },
      "geometry": {
        "type": "Point",
        "coordinates": [
          -67.57329007814216,
          -21.6836155663655
        ]
      }
    },
    {
      "type": "Feature",
      "properties": {
        "norad_id": 40749,
        "name": "BEIDOU-3S M1S (C57)",
        "group": "gnss",
        "lat": 1.131536888108414,
        "lon": 127.76414663727049,
        "alt_km": 21535.862542186882,
        "timestamp": "2025-12-09T04:51:47.737803+00:00",
        "meta_object_name": "BEIDOU-3S M1S (C57)",
        "meta_object_id": "2015-037B",
        "meta_epoch": "2025-12-08T09:35:11.370624",
        "meta_mean_motion": 1.86253811,
        "meta_eccentricity": 0.0003573,
        "meta_inclination": 55.0394,
        "meta_ra_of_asc_node": 308.6023,
        "meta_arg_of_pericenter": 359.9118,
        "meta_mean_anomaly": 0.0754,
        "meta_ephemeris_type": 0,
        "meta_classification_type": "U",
        "meta_norad_cat_id": 40749,
        "meta_element_set_no": 999,
        "meta_rev_at_epoch": 7057,
        "meta_bstar": 0,
        "meta_mean_motion_dot": -7.3e-07,
        "meta_mean_motion_ddot": 0,
        "tle_line1": "1 40749U 15037B   25342.39943716 -.00000073  00000+0  00000+0 0  9997",
        "tle_line2": "2 40749  55.0394 308.6023 0003573 359.9118   0.0754  1.86253811 70578"
      },
      "geometry": {
        "type": "Point",
        "coordinates": [
          127.76414663727049,
          1.131536888108414
        ]
      }
    },
    {
      "type": "Feature",
      "properties": {
        "norad_id": 40889,
        "name": "GSAT0205 (GALILEO 9)",
        "group": "gnss",
        "lat": 9.628397158401494,
        "lon": -126.31493692870689,
        "alt_km": 23205.694993118577,
        "timestamp": "2025-12-09T04:51:47.737814+00:00",
        "meta_object_name": "GSAT0205 (GALILEO 9)",
        "meta_object_id": "2015-045A",
        "meta_epoch": "2025-12-06T20:05:28.161600",
        "meta_mean_motion": 1.70472973,
        "meta_eccentricity": 0.00059315,
        "meta_inclination": 55.0055,
        "meta_ra_of_asc_node": 226.9215,
        "meta_arg_of_pericenter": 39.3036,
        "meta_mean_anomaly": 320.836,
        "meta_ephemeris_type": 0,
        "meta_classification_type": "U",
        "meta_norad_cat_id": 40889,
        "meta_element_set_no": 999,
        "meta_rev_at_epoch": 6373,
        "meta_bstar": 0,
        "meta_mean_motion_dot": 2.8e-07,
        "meta_mean_motion_ddot": 0,
        "tle_line1": "1 40889U 15045A   25340.83713150  .00000028  00000+0  00000+0 0  9994",
        "tle_line2": "2 40889  55.0055 226.9215 0005931  39.3036 320.8360  1.70472973 63731"
      },
      "geometry": {
        "type": "Point",
        "coordinates": [
          -126.31493692870689,
          9.628397158401494
        ]
      }
    },
    {
      "type": "Feature",
      "properties": {
        "norad_id": 40890,
        "name": "GSAT0206 (GALILEO 10)",
        "group": "gnss",
        "lat": -43.032185697121825,
        "lon": 87.6630981409923,
        "alt_km": 23236.80121042974,
        "timestamp": "2025-12-09T04:51:47.737825+00:00",
        "meta_object_name": "GSAT0206 (GALILEO 10)",
        "meta_object_id": "2015-045B",
        "meta_epoch": "2025-12-08T05:32:31.943328",
        "meta_mean_motion": 1.70473105,
        "meta_eccentricity": 0.0003529,
        "meta_inclination": 55.0039,
        "meta_ra_of_asc_node": 226.878,
        "meta_arg_of_pericenter": 31.5182,
        "meta_mean_anomaly": 328.5941,
        "meta_ephemeris_type": 0,
        "meta_classification_type": "U",
        "meta_norad_cat_id": 40890,
        "meta_element_set_no": 999,
        "meta_rev_at_epoch": 6378,
        "meta_bstar": 0,
        "meta_mean_motion_dot": 1.8e-07,
        "meta_mean_motion_ddot": 0,
        "tle_line1": "1 40890U 15045B   25342.23092527  .00000018  00000+0  00000+0 0  9999",
        "tle_line2": "2 40890  55.0039 226.8780 0003529  31.5182 328.5941  1.70473105 63781"
      },
      "geometry": {
        "type": "Point",
        "coordinates": [
          87.6630981409923,
          -43.032185697121825
        ]
      }
    }
  ]
}